[Satellite]
VERSION=1.1
NAME=GSAT0201 (PRN E18)
NICKNAME=GSAT0201 (PRN E18)
TLE1=1 40128U 14050A   22342.30580311 -.00000110  00000+0  00000+0 0  9990
TLE2=2 40128  50.1617 325.3524 1615232 130.3482 244.9522  1.85519601 54443
STATUS=0
